[{"OBJECT_NAME":"STARLINK-5959","OBJECT_ID":"2023-064G","EPOCH":"2026-03-09T22:33:03.362400","MEAN_MOTION":14.98327857,"ECCENTRICITY":0.00032927,"INCLINATION":70.0003,"RA_OF_ASC_NODE":143.8225,"ARG_OF_PERICENTER":267.2953,"MEAN_ANOMALY":92.7829,"EPHEMERIS_TYPE":0,"CLASSIFICATION_TYPE":"U","NORAD_CAT_ID":56454,"ELEMENT_SET_NO":999,"REV_AT_EPOCH":15528,"BSTAR":-7.171631e-6,"MEAN_MOTION_DOT":-1.79e-6,"MEAN_MOTION_DDOT":0},{"OBJECT_NAME":"CZ-6A DEB","OBJECT_ID":"2024-140EK","EPOCH":"2026-03-09T15:28:36.104448","MEAN_MOTION":14.67108539,"ECCENTRICITY":0.016811,"INCLINATION":89.0843,"RA_OF_ASC_NODE":287.4051,"ARG_OF_PERICENTER":210.7562,"MEAN_ANOMALY":148.3722,"EPHEMERIS_TYPE":0,"CLASSIFICATION_TYPE":"U","NORAD_CAT_ID":60760,"ELEMENT_SET_NO":999,"REV_AT_EPOCH":8264,"BSTAR":0.00036142,"MEAN_MOTION_DOT":2.531e-5,"MEAN_MOTION_DDOT":0}]
